NORAD_CAT_ID,OBJECT_NAME,OBJECT_TYPE,EPOCH,MEAN_MOTION,ECCENTRICITY,INCLINATION,RA_OF_ASC_NODE,ARG_OF_PERICENTER,MEAN_ANOMALY,BSTAR,MEAN_MOTION_DOT,MEAN_MOTION_DDOT,TLE_LINE0,TLE_LINE1,TLE_LINE2,SEMIMAJOR_AXIS,PERIOD,APOGEE,PERIGEE,DECAYED
49417.0,STARLINK-3154,PAYLOAD,2022-02-07 19:40:59,15.24479673,0.0003033,53.2172,72.4624,48.2968,311.8291,-0.0073863999999999,-0.00179786,0.0,0 STARLINK-3154,1 49417U 21104K   22038.82013333 -.00179786  00000-0 -73864-2 0  9991,2 49417  53.2172  72.4624 0003033  48.2968 311.8291 15.24479673 13689,6870.485,94.458,494.434,490.267,0.0
49417.0,STARLINK-3154,PAYLOAD,2022-02-08 13:00:54,15.2327881,0.0002207,53.2168,69.1512,52.2716,307.8482,-0.010405,-0.00242156,0.0,0 STARLINK-3154,1 49417U 21104K   22039.54230306 -.00242156  00000-0 -10405-1 0  9995,2 49417  53.2168  69.1512 0002207  52.2716 307.8482 15.23278810 14903,6874.096,94.533,497.478,494.444,0.0
49417.0,STARLINK-3154,PAYLOAD,2022-02-08 19:18:47,15.23202488,0.0002511,53.2169,67.9446,25.3444,334.7677,-0.0085708,-0.00200208,0.0,0 STARLINK-3154,1 49417U 21104K   22039.80471250 -.00200208  00000-0 -85708-2 0  9990,2 49417  53.2169  67.9446 0002511  25.3444 334.7677 15.23202488 14940,6874.325,94.538,497.916,494.464,0.0
49417.0,STARLINK-3154,PAYLOAD,2022-02-09 01:37:06,15.2283177,0.0002628999999999,53.217,66.741,45.5879,314.5334,-0.0086855,-0.00200656,0.0,0 STARLINK-3154,1 49417U 21104K   22040.06743279 -.00200656  00000-0 -86855-2 0  9994,2 49417  53.2170  66.7410 0002629  45.5879 314.5334 15.22831770 14987,6875.441,94.561,499.11300000000006,495.49800000000016,0.0
49417.0,STARLINK-3154,PAYLOAD,2022-02-09 12:39:26,15.22110063,0.0001675999999999,53.2177,64.6326,24.2866,335.8211,-0.0097114,-0.00219015,0.0,0 STARLINK-3154,1 49417U 21104K   22040.52739507 -.00219015  00000-0 -97114-2 0  9993,2 49417  53.2177  64.6326 0001676  24.2866 335.8211 15.22110063 15052,6877.614000000001,94.606,500.632,498.326,0.0
49417.0,STARLINK-3154,PAYLOAD,2022-02-09 14:14:02,15.2205108,0.0001808,53.2178,64.3331,25.9571,334.1517,-0.0094246,-0.0021238,0.0,0 STARLINK-3154,1 49417U 21104K   22040.59308338 -.00212380  00000-0 -94246-2 0  9995,2 49417  53.2178  64.3331 0001808  25.9571 334.1517 15.22051080 13955,6877.792,94.609,500.9,498.413,0.0
49417.0,STARLINK-3154,PAYLOAD,2022-02-09 18:57:57,15.21766252,0.0002785,53.2179,63.4298,40.3729,319.7475,-0.0088669,-0.00198554,0.0,0 STARLINK-3154,1 49417U 21104K   22040.79025219 -.00198554  00000-0 -88669-2 0  9999,2 49417  53.2179  63.4298 0002785  40.3729 319.7475 15.21766252 15091,6878.65,94.627,502.431,498.599,0.0
49417.0,STARLINK-3154,PAYLOAD,2022-02-10 12:19:31,15.20709229,0.0001995,53.2186,60.1237,30.1905,329.9207,-0.0090407999999999,-0.00196299,0.0,0 STARLINK-3154,1 49417U 21104K   22041.51355943 -.00196299  00000-0 -90408-2 0  9998,2 49417  53.2186  60.1237 0001995  30.1905 329.9207 15.20709229 15200,6881.837,94.693,505.075,502.329,0.0
49417.0,STARLINK-3154,PAYLOAD,2022-02-10 13:54:16,15.20604159,0.0002347,53.2192,59.8239,28.7152,331.3974,-0.0095194,-0.00205783,0.0,0 STARLINK-3154,1 49417U 21104K   22041.57935488 -.00205783  00000-0 -95194-2 0  9998,2 49417  53.2192  59.8239 0002347  28.7152 331.3974 15.20604159 14105,6882.154,94.699,505.634,502.404,0.0
49417.0,STARLINK-3154,PAYLOAD,2022-02-10 18:38:23,15.20401375,0.0002531,53.2187,58.9226,50.5207,309.6014,-0.0093683,-0.00201447,0.0,0 STARLINK-3154,1 49417U 21104K   22041.77666100 -.00201447  00000-0 -93683-2 0  9996,2 49417  53.2187  58.9226 0002531  50.5207 309.6014 15.20401375 15248,6882.766,94.712,506.37300000000016,502.889,0.0
49417.0,STARLINK-3154,PAYLOAD,2022-02-11 02:32:07,15.19918604,0.0002252,53.2194,57.4209,37.9993,322.1163,-0.0086602,-0.00184068,0.0,0 STARLINK-3154,1 49417U 21104K   22042.10564672 -.00184068  00000-0 -86602-2 0  9997,2 49417  53.2194  57.4209 0002252  37.9993 322.1163 15.19918604 15298,6884.223000000001,94.742,507.639,504.538,0.0
49417.0,STARLINK-3154,PAYLOAD,2022-02-11 07:16:30,15.19631332,0.0002005,53.2188,56.5217,57.352,302.767,-0.0097626,-0.00205139,0.0,0 STARLINK-3154,1 49417U 21104K   22042.30313153 -.00205139  00000-0 -97626-2 0  9996,2 49417  53.2188  56.5217 0002005  57.3520 302.7670 15.19631332 15329,6885.090999999999,94.76,508.336,505.575,0.0
49417.0,STARLINK-3154,PAYLOAD,2022-02-11 18:20:00,15.19106973,0.000334,53.2192,54.418,46.4508,313.6766,-0.0089637,-0.00186042,0.0,0 STARLINK-3154,1 49417U 21104K   22042.76389582 -.00186042  00000-0 -89637-2 0  9999,2 49417  53.2192  54.4180 0003340  46.4508 313.6766 15.19106973 15390,6886.675,94.793,510.84,506.24,0.0
49417.0,STARLINK-3154,PAYLOAD,2022-02-12 05:24:02,15.18324595,0.0002233,53.22,52.3217,7.462999999999999,352.6399,-0.009353,-0.00189647,0.0,0 STARLINK-3154,1 49417U 21104K   22043.22502881 -.00189647  00000-0 -93530-2 0  9991,2 49417  53.2200  52.3217 0002233   7.4630 352.6399 15.18324595 15465,6889.041,94.841,512.444,509.367,0.0
49417.0,STARLINK-3154,PAYLOAD,2022-02-12 11:43:32,15.17960593,0.0001232,53.2203,51.1237,178.7307,181.3693,-0.009517,-0.00190902,0.0,0 STARLINK-3154,1 49417U 21104K   22043.48856510 -.00190902  00000-0 -95170-2 0  9998,2 49417  53.2203  51.1237 0001232 178.7307 181.3693 15.17960593 15500,6890.142,94.864,512.856,511.158,0.0
49417.0,STARLINK-3154,PAYLOAD,2022-02-12 19:38:05,15.17513409,0.0002341,53.2202,49.6244,355.6089,4.4886,-0.010851,-0.00214177,0.0,0 STARLINK-3154,1 49417U 21104K   22043.81812275 -.00214177  00000-0 -10851-1 0  9998,2 49417  53.2202  49.6244 0002341 355.6089   4.4886 15.17513409 15558,6891.496,94.892,514.974,511.747,0.0
49417.0,STARLINK-3154,PAYLOAD,2022-02-13 11:27:32,15.16596064,0.0002751,53.2213,46.6337,349.2675,10.8261,-0.010715,-0.00206241,0.0,0 STARLINK-3154,1 49417U 21104K   22044.47745896 -.00206241  00000-0 -10715-1 0  9997,2 49417  53.2213  46.6337 0002751 349.2675  10.8261 15.16596064 15651,6894.274,94.949,518.036,514.243,0.0
49417.0,STARLINK-3154,PAYLOAD,2022-02-14 04:52:35,15.15560229,5.39e-05,53.2192,43.3381,22.021,338.0808,-0.010571,-0.00197744,0.0,0 STARLINK-3154,1 49417U 21104K   22045.20319049 -.00197744  00000-0 -10571-1 0  9993,2 49417  53.2192  43.3381 0000539  22.0210 338.0808 15.15560229 15760,6897.415,95.014,519.6519999999998,518.909,0.0
49417.0,STARLINK-3154,PAYLOAD,2022-02-14 08:02:43,15.15331204,0.0001846,53.2191,42.7408,28.76,331.3496,-0.010367,-0.00192826,0.0,0 STARLINK-3154,1 49417U 21104K   22045.33522628 -.00192826  00000-0 -10367-1 0  9995,2 49417  53.2191  42.7408 0001846  28.7600 331.3496 15.15331204 15780,6898.11,95.029,521.249,518.702,0.0
49417.0,STARLINK-3154,PAYLOAD,2022-02-15 10:59:24,15.13767789,8.170000000000001e-05,53.2194,37.6592,36.5945,323.5105,-0.011104,-0.00197445,0.0,0 STARLINK-3154,1 49417U 21104K   22046.45792767 -.00197445  00000-0 -11104-1 0  9994,2 49417  53.2194  37.6592 0000817  36.5945 323.5105 15.13767789 14841,6902.859,95.127,525.288,524.16,0.0
49417.0,STARLINK-3154,PAYLOAD,2022-02-16 02:50:29,15.13292686,0.0001936,53.2198,34.674,92.4695,267.6521,-0.0070675,-0.00125362,0.0,0 STARLINK-3154,1 49417U 21104K   22047.11839699 -.00125362  00000-0 -70675-2 0  9992,2 49417  53.2198  34.6740 0001936  92.4695 267.6521 15.13292686 16057,6904.304,95.157,527.505,524.832,0.0
49417.0,STARLINK-3154,PAYLOAD,2022-02-16 06:01:33,15.12688677,0.0002123,53.2194,34.0798,76.2754,283.8476,-0.011174,-0.00192905,0.0,0 STARLINK-3154,1 49417U 21104K   22047.25108680 -.00192905  00000-0 -11174-1 0  9991,2 49417  53.2194  34.0798 0002123  76.2754 283.8476 15.12688677 16074,6906.141,95.195,529.4730000000002,526.54,0.0
49417.0,STARLINK-3154,PAYLOAD,2022-02-16 13:57:37,15.12356068,0.0001250999999999,53.2197,32.5906,45.5878,314.5218,-0.011188,-0.00191385,0.0,0 STARLINK-3154,1 49417U 21104K   22047.58168403 -.00191385  00000-0 -11188-1 0  9992,2 49417  53.2197  32.5906 0001251  45.5878 314.5218 15.12356068 15013,6907.154,95.216,529.883,528.155,0.0
49417.0,STARLINK-3154,PAYLOAD,2022-02-16 18:43:27,15.12007666,0.0001921,53.2193,31.6955,64.5152,295.6040000000001,-0.011601,-0.00196395,0.0,0 STARLINK-3154,1 49417U 21104K   22047.78018170 -.00196395  00000-0 -11601-1 0  9995,2 49417  53.2193  31.6955 0001921  64.5152 295.6040 15.12007666 16158,6908.215,95.238,531.4069999999998,528.753,0.0
49417.0,STARLINK-3154,PAYLOAD,2022-02-16 20:18:51,15.11759326,0.0004018,53.22,31.3964,25.3924,334.7267,-0.010967,-0.0018474,0.0,0 STARLINK-3154,1 49417U 21104K   22047.84643433 -.00184740  00000-0 -10967-1 0  9993,2 49417  53.2200  31.3964 0004018  25.3924 334.7267 15.11759326 15056,6908.972,95.253,533.613,528.061,0.0
49417.0,STARLINK-3154,PAYLOAD,2022-02-17 04:15:13,15.1132802,0.0001440999999999,53.22,29.9095,59.5751,300.5384,-0.010783,-0.00179559,0.0,0 STARLINK-3154,1 49417U 21104K   22048.17724510 -.00179559  00000-0 -10783-1 0  9994,2 49417  53.2200  29.9095 0001441  59.5751 300.5384 15.11328020 16211,6910.286,95.28,533.1469999999998,531.155,0.0
49417.0,STARLINK-3154,PAYLOAD,2022-02-17 05:50:35,15.11216388,0.0001922,53.22,29.6117,57.3402,302.7776,-0.011468,-0.00190087,0.0,0 STARLINK-3154,1 49417U 21104K   22048.24346067 -.00190087  00000-0 -11468-1 0  9999,2 49417  53.2200  29.6117 0001922  57.3402 302.7776 15.11216388 16229,6910.626,95.287,533.819,531.163,0.0
49417.0,STARLINK-3154,PAYLOAD,2022-02-17 15:22:18,15.10890257,0.0001450999999999,53.2195,27.8241,35.2592,324.8497,-0.010997,-0.00180874,0.0,0 STARLINK-3154,1 49417U 21104K   22048.64049099 -.00180874  00000-0 -10997-1 0  9997,2 49417  53.2195  27.8241 0001451  35.2592 324.8497 15.10890257 16285,6911.621,95.308,534.489,532.4830000000002,0.0
49417.0,STARLINK-3154,PAYLOAD,2022-02-18 02:30:00,15.09974541,0.0001793,53.2206,25.7384,50.4769,309.6382,-0.01012,-0.00162728,0.0,0 STARLINK-3154,1 49417U 21104K   22049.10417387 -.00162728  00000-0 -10120-1 0  9994,2 49417  53.2206  25.7384 0001793  50.4769 309.6382 15.09974541 16356,6914.415,95.366,537.519,535.04,0.0
